OBJECT_NAME,OBJECT_ID,EPOCH,MEAN_MOTION,ECCENTRICITY,INCLINATION,RA_OF_ASC_NODE,ARG_OF_PERICENTER,MEAN_ANOMALY,EPHEMERIS_TYPE,CLASSIFICATION_TYPE,NORAD_CAT_ID,ELEMENT_SET_NO,REV_AT_EPOCH,BSTAR,MEAN_MOTION_DOT,MEAN_MOTION_DDOT
ASNARO-2,2018-007A,2026-06-09T16:38:04.030080,15.22436579,.00016335,97.3977,167.7372,87.8452,272.2971,0,U,43152,999,46627,.38323332E-3,.8797E-4,0
JILIN-1 07,2018-008E,2026-06-10T07:29:03.220512,15.34607377,.00101908,97.1776,181.4241,85.3715,274.8692,0,U,43159,999,46394,.2438072E-3,.8112E-4,0
JILIN-1 08,2018-008F,2026-06-10T07:22:58.812096,15.33631981,.00080683,97.1808,180.7436,98.6569,261.5589,0,U,43160,999,46389,.1851908E-3,.5951E-4,0
S-NET D,2018-014G,2026-06-10T00:09:20.109600,15.16605477,.00095611,97.5370,65.8418,51.9999,308.2096,0,U,43186,999,45767,.25943924E-3,.5007E-4,0
S-NET B,2018-014H,2026-06-09T16:30:34.229088,15.16571708,.00100861,97.5374,65.5115,48.2673,311.9421,0,U,43187,999,45762,.26145283E-3,.5042E-4,0
S-NET A,2018-014J,2026-06-09T17:47:44.329920,15.16610982,.0010011,97.5383,65.7721,48.9055,311.3041,0,U,43188,999,45763,.2617E-3,.5052E-4,0
S-NET C,2018-014K,2026-06-09T16:36:05.816736,15.16563550,.0011214,97.5401,65.7960,41.6172,318.5912,0,U,43189,999,45617,.26002858E-3,.5014E-4,0
PAZ,2018-020A,2026-06-10T06:09:39.820032,15.19148429,.00017072,97.4448,168.7410,87.8113,272.3317,0,U,43215,999,45995,.83446865E-4,.1686E-4,0
GOES 17,2018-022A,2026-06-10T06:01:17.897376,1.00271238,.00005324,0.9186,85.8386,17.6418,155.9718,0,U,43226,999,3035,0,-.165E-5,0
LKW-4,2018-025A,2026-06-10T00:46:39.371232,15.61709341,.00018564,97.6341,331.3489,330.8471,29.2682,0,U,43236,999,45891,.47824431E-3,.41263E-3,0
ZHUHAI-1 OVS-02,2018-040B,2026-06-10T06:37:35.521248,15.24932195,.00015123,97.0394,178.9158,292.3541,67.7537,0,U,43440,999,45166,.27607933E-3,.681E-4,0
ZHUHAI-1 OHS-02,2018-040C,2026-06-10T07:56:06.323136,15.25782216,.00074452,97.0378,185.8998,249.1874,110.8568,0,U,43441,999,11323,.2872025E-3,.7276E-4,0
GAOFEN-6,2018-048A,2026-06-09T01:47:54.508416,14.76624229,.0011378,97.7757,223.0567,194.8499,165.2379,0,U,43484,999,43219,.12207314E-3,.804E-5,0
LUOJIA-1 01,2018-048B,2026-06-10T07:29:02.059296,14.87261139,.00099288,97.8098,239.6099,137.1502,223.0490,0,U,43485,999,43319,.25246307E-3,.2223E-4,0
PAKTES 1A,2018-056A,2026-06-10T06:18:54.909792,14.99077258,.00224137,98.1305,317.4546,127.8559,232.4695,0,U,43529,999,43088,.19196263E-3,.2276E-4,0
PRSS-1,2018-056B,2026-06-10T07:16:17.700960,14.81979592,.00017587,97.7818,229.3633,76.7123,283.4287,0,U,43530,999,42741,.12489741E-3,.939E-5,0
HAIYANG-1C,2018-068A,2026-06-10T06:26:28.631616,14.34176446,.00119873,98.5187,233.6763,112.7179,247.5274,0,U,43609,999,40609,-.12424786E-4,-.78E-6,0
SSTL S1-4,2018-071A,2026-06-09T15:57:14.877792,14.96187686,.00014828,97.5039,32.5916,104.7724,255.3662,0,U,43618,999,42181,.140246E-3,.1526E-4,0
HAIYANG-2B,2018-081A,2026-06-09T06:09:02.524608,13.79309357,.0000773,99.3290,169.1325,17.1368,342.9810,0,U,43655,999,38383,.2166E-3,.178E-5,0
CFOSAT,2018-083A,2026-06-10T07:07:28.761888,15.16331815,.00024368,97.3606,166.0309,95.6121,264.5390,0,U,43662,999,42139,.16526706E-3,.3139E-4,0
TEN-KOH,2018-084G,2026-06-10T06:23:16.612800,15.02915096,.00108194,98.0783,353.3381,135.5271,224.6823,0,U,43677,999,41512,.16150476E-3,.2104E-4,0
DIWATA-2B,2018-084H,2026-06-10T07:13:23.166912,15.00418729,.00121278,98.1177,357.2106,192.6809,167.4110,0,U,43678,999,41518,.17531641E-3,.2141E-4,0
STARS-AO,2018-084J,2026-06-09T13:17:53.005344,15.16967775,.00023766,98.0519,14.0555,154.1969,205.9382,0,U,43679,999,41631,.28459574E-3,.5544E-4,0
AUTCUBE 2,2018-084K,2026-06-09T19:24:47.019456,15.10039507,.00103501,98.0721,6.5927,71.5463,288.6889,0,U,43681,999,41581,.18668494E-3,.2968E-4,0
METOP-C,2018-087A,2026-06-10T05:46:16.164768,14.21510201,.00015094,98.6646,220.9708,137.3356,222.7939,0,U,43689,999,39384,.52021948E-4,.7E-6,0
ES'HAIL 2,2018-090A,2026-06-10T06:34:09.954912,1.00273901,.0001901,0.0130,295.1016,185.1228,262.7748,0,U,43700,999,2760,0,.162E-5,0
MOHAMMED VI-B,2018-095A,2026-06-10T08:02:29.508000,14.77108030,.00012114,97.9552,233.7544,92.2136,267.9213,0,U,43717,999,40717,.41767415E-4,.244E-5,0
HYSIS,2018-096A,2026-06-10T07:25:15.786336,14.78682106,.00017387,97.9838,228.1110,110.5566,249.5832,0,U,43719,999,40640,.1261892E-3,.873E-5,0
COSMOS 2530 (RODNIK-S 16),2018-097A,2026-06-10T07:01:52.633056,12.42880850,.00204436,82.5143,226.5588,54.0865,306.2108,0,U,43751,999,34143,-.29899413E-3,-.31E-6,0
