ASNARO-2                
1 43152U 18007A   26160.69310220  .00008797  00000+0  38323-3 0  9991
2 43152  97.3977 167.7372 0001633  87.8452 272.2971 15.22436579466278
JILIN-1 07              
1 43159U 18008E   26161.31184283  .00008112  00000+0  24381-3 0  9997
2 43159  97.1776 181.4241 0010190  85.3715 274.8692 15.34607377463949
JILIN-1 08              
1 43160U 18008F   26161.30762514  .00005951  00000+0  18519-3 0  9991
2 43160  97.1808 180.7436 0008068  98.6569 261.5589 15.33631981463899
S-NET D                 
1 43186U 18014G   26161.00648275  .00005007  00000+0  25944-3 0  9992
2 43186  97.5370  65.8418 0009561  51.9999 308.2096 15.16605477457679
S-NET B                 
1 43187U 18014H   26160.68789617  .00005042  00000+0  26145-3 0  9995
2 43187  97.5374  65.5115 0010086  48.2673 311.9421 15.16571708457624
S-NET A                 
1 43188U 18014J   26160.74148530  .00005052  00000+0  26170-3 0  9995
2 43188  97.5383  65.7721 0010011  48.9055 311.3041 15.16610982457630
S-NET C                 
1 43189U 18014K   26160.69173399  .00005014  00000+0  26003-3 0  9994
2 43189  97.5401  65.7960 0011214  41.6172 318.5912 15.16563550456175
PAZ                     
1 43215U 18020A   26161.25671088  .00001686  00000+0  83447-4 0  9999
2 43215  97.4448 168.7410 0001707  87.8113 272.3317 15.19148429459954
GOES 17                 
1 43226U 18022A   26161.25090159 -.00000165  00000+0  00000+0 0  9998
2 43226   0.9186  85.8386 0000532  17.6418 155.9718  1.00271238 30359
LKW-4                   
1 43236U 18025A   26161.03240013  .00041263  00000+0  47824-3 0  9996
2 43236  97.6341 331.3489 0001856 330.8471  29.2682 15.61709341458910
ZHUHAI-1 OVS-02         
1 43440U 18040B   26161.27610557  .00006810  00000+0  27608-3 0  9997
2 43440  97.0394 178.9158 0001512 292.3541  67.7537 15.24932195451661
ZHUHAI-1 OHS-02         
1 43441U 18040C   26161.33062874  .00007276  00000+0  28720-3 0  9991
2 43441  97.0378 185.8998 0007445 249.1874 110.8568 15.25782216113233
GAOFEN-6                
1 43484U 18048A   26160.07493644  .00000804  00000+0  12207-3 0  9992
2 43484  97.7757 223.0567 0011378 194.8499 165.2379 14.76624229432191
LUOJIA-1 01             
1 43485U 18048B   26161.31182939  .00002223  00000+0  25246-3 0  9997
2 43485  97.8098 239.6099 0009928 137.1502 223.0490 14.87261139433194
PAKTES 1A               
1 43529U 18056A   26161.26313553  .00002276  00000+0  19196-3 0  9992
2 43529  98.1305 317.4546 0022413 127.8559 232.4695 14.99077258430886
PRSS-1                  
1 43530U 18056B   26161.30298265  .00000939  00000+0  12490-3 0  9995
2 43530  97.7818 229.3633 0001758  76.7123 283.4287 14.81979592427419
HAIYANG-1C              
1 43609U 18068A   26161.26838694 -.00000078  00000+0 -12425-4 0  9991
2 43609  98.5187 233.6763 0011987 112.7179 247.5274 14.34176446406096
SSTL S1-4               
1 43618U 18071A   26160.66475553  .00001526  00000+0  14025-3 0  9993
2 43618  97.5039  32.5916 0001482 104.7724 255.3662 14.96187686421814
HAIYANG-2B              
1 43655U 18081A   26160.25627922  .00000178  00000+0  21660-3 0  9994
2 43655  99.3290 169.1325 0000773  17.1368 342.9810 13.79309357383836
CFOSAT                  
1 43662U 18083A   26161.29686067  .00003139  00000+0  16527-3 0  9990
2 43662  97.3606 166.0309 0002436  95.6121 264.5390 15.16331815421390
TEN-KOH                 
1 43677U 18084G   26161.26616450  .00002104  00000+0  16150-3 0  9996
2 43677  98.0783 353.3381 0010819 135.5271 224.6823 15.02915096415121
DIWATA-2B               
1 43678U 18084H   26161.30096258  .00002141  00000+0  17532-3 0  9996
2 43678  98.1177 357.2106 0012127 192.6809 167.4110 15.00418729415181
STARS-AO                
1 43679U 18084J   26160.55408571  .00005544  00000+0  28460-3 0  9990
2 43679  98.0519  14.0555 0002376 154.1969 205.9382 15.16967775416314
AUTCUBE 2               
1 43681U 18084K   26160.80887754  .00002968  00000+0  18668-3 0  9991
2 43681  98.0721   6.5927 0010350  71.5463 288.6889 15.10039507415814
METOP-C                 
1 43689U 18087A   26161.24046487  .00000070  00000+0  52022-4 0  9996
2 43689  98.6646 220.9708 0001509 137.3356 222.7939 14.21510201393840
ES'HAIL 2               
1 43700U 18090A   26161.27372633  .00000162  00000+0  00000+0 0  9998
2 43700   0.0130 295.1016 0001901 185.1228 262.7748  1.00273901 27606
MOHAMMED VI-B           
1 43717U 18095A   26161.33506375  .00000244  00000+0  41767-4 0  9991
2 43717  97.9552 233.7544 0001211  92.2136 267.9213 14.77108030407177
HYSIS                   
1 43719U 18096A   26161.30921049  .00000873  00000+0  12619-3 0  9991
2 43719  97.9838 228.1110 0001738 110.5566 249.5832 14.78682106406408
COSMOS 2530 (RODNIK-S *)
1 43751U 18097A   26161.29297029 -.00000031  00000+0 -29899-3 0  9996
2 43751  82.5143 226.5588 0020443  54.0865 306.2108 12.42880850341435
